NORAD_CAT_ID,OBJECT_NAME,OBJECT_TYPE,EPOCH,MEAN_MOTION,ECCENTRICITY,INCLINATION,RA_OF_ASC_NODE,ARG_OF_PERICENTER,MEAN_ANOMALY,BSTAR,MEAN_MOTION_DOT,MEAN_MOTION_DDOT,TLE_LINE0,TLE_LINE1,TLE_LINE2,SEMIMAJOR_AXIS,PERIOD,APOGEE,PERIGEE,DECAYED
51105.0,STARLINK-3350,PAYLOAD,2023-02-07 02:27:46,15.08857129,0.0001177,53.2151,306.5759,95.7,264.4126,0.0016112,0.00025459,0.0,0 STARLINK-3350,1 51105U 22005B   23038.10262256  .00025459  00000-0  16112-2 0  9999,2 51105  53.2151 306.5759 0001177  95.7000 264.4126 15.08857129 59918,6917.828,95.436,540.507,538.879,0.0
51105.0,STARLINK-3350,PAYLOAD,2023-02-07 04:03:09,15.08871247,0.0001066,53.2148,306.2782,94.434,265.6774,0.0019132,0.00030318,0.0,0 STARLINK-3350,1 51105U 22005B   23038.16885981  .00030318  00000-0  19132-2 0  9996,2 51105  53.2148 306.2782 0001066  94.4340 265.6774 15.08871247 59927,6917.785,95.436,540.387,538.912,0.0
51105.0,STARLINK-3350,PAYLOAD,2023-02-07 21:32:24,15.08849721,0.0001029,53.2149,303.0073,91.9224,268.1886,0.0013957,0.00022,0.0,0 STARLINK-3350,1 51105U 22005B   23038.89750472  .00022000  00000-0  13957-2 0  9990,2 51105  53.2149 303.0073 0001029  91.9224 268.1886 15.08849721 58921,6917.851,95.437,540.428,539.004,0.0
51105.0,STARLINK-3350,PAYLOAD,2023-02-08 03:53:56,15.08856079,9.99e-05,53.2144,301.8148,77.3357,282.7747,0.00081202,0.00012665,0.0,0 STARLINK-3350,1 51105U 22005B   23039.16246212  .00012665  00000-0  81202-3 0  9998,2 51105  53.2144 301.8148 0000999  77.3357 282.7747 15.08856079 60076,6917.831,95.437,540.387,539.005,0.0
51105.0,STARLINK-3350,PAYLOAD,2023-02-08 21:23:11,15.08835514,0.0001578,53.2138,298.5418,90.1901,269.9271,0.00060423,9.34e-05,0.0,0 STARLINK-3350,1 51105U 22005B   23039.89111045  .00009340  00000-0  60423-3 0  9991,2 51105  53.2138 298.5418 0001578  90.1901 269.9271 15.08835514 59071,6917.894,95.438,540.851,538.667,0.0
51105.0,STARLINK-3350,PAYLOAD,2023-02-09 03:44:44,15.08855109,0.0001613,53.2136,297.3566,82.6102,277.5073,0.0016764,0.00026504,0.0,0 STARLINK-3350,1 51105U 22005B   23040.15606886  .00026504  00000-0  16764-2 0  9993,2 51105  53.2136 297.3566 0001613  82.6102 277.5073 15.08855109 60225,6917.834,95.437,540.815,538.583,0.0
51105.0,STARLINK-3350,PAYLOAD,2023-02-09 21:13:59,15.08840937,0.0001093,53.2139,294.0852,99.9921,260.1195,0.0011845,0.00018614,0.0,0 STARLINK-3350,1 51105U 22005B   23040.88471218  .00018614  00000-0  11845-2 0  9990,2 51105  53.2139 294.0852 0001093  99.9921 260.1195 15.08840937 60330,6917.878,95.437,540.499,538.986,0.0
51105.0,STARLINK-3350,PAYLOAD,2023-02-10 02:00:08,15.08849097,0.0001734,53.2143,293.1905,85.4252,274.6938,0.0011846,0.0001862,0.0,0 STARLINK-3350,1 51105U 22005B   23041.08343258  .00018620  00000-0  11846-2 0  9993,2 51105  53.2143 293.1905 0001734  85.4252 274.6938 15.08849097 59253,6917.853,95.437,540.917,538.518,0.0
51105.0,STARLINK-3350,PAYLOAD,2023-02-10 22:40:09,15.08848242,0.000146,53.2141,289.3267,90.1434,269.9726,0.0012599,0.00019825,0.0,0 STARLINK-3350,1 51105U 22005B   23041.94455321  .00019825  00000-0  12599-2 0  9997,2 51105  53.2141 289.3267 0001460  90.1434 269.9726 15.08848242 60491,6917.855,95.437,540.73,538.71,0.0
51105.0,STARLINK-3350,PAYLOAD,2023-02-11 22:30:56,15.08851123,0.0001597,53.2146,284.8651,86.0247,274.0928,0.0012681,0.00019958,0.0,0 STARLINK-3350,1 51105U 22005B   23042.93815521  .00019958  00000-0  12681-2 0  9998,2 51105  53.2146 284.8651 0001597  86.0247 274.0928 15.08851123 60640,6917.846,95.437,540.816,538.607,0.0
51105.0,STARLINK-3350,PAYLOAD,2023-02-12 01:41:42,15.0883897,0.0002005,53.2155,284.2753,147.6625,212.4709,0.0001,1.304e-05,0.0,0 STARLINK-3350,1 51105U 22005B   23043.07063563  .00001304  00000-0  10000-3 0  9995,2 51105  53.2155 284.2753 0002005 147.6625 212.4709 15.08838970 60666,6917.884,95.438,541.136,538.362,0.0
51105.0,STARLINK-3350,PAYLOAD,2023-02-13 01:32:29,15.08844283,0.0001145,53.2142,279.8077,87.1001,273.0122,0.00028558,4.261e-05,0.0,0 STARLINK-3350,1 51105U 22005B   23044.06423488  .00004261  00000-0  28558-3 0  9993,2 51105  53.2142 279.8077 0001145  87.1001 273.0122 15.08844283 59700,6917.867,95.437,540.524,538.94,0.0
51105.0,STARLINK-3350,PAYLOAD,2023-02-14 01:23:17,15.08836292,0.0001116,53.2138,275.3489,68.4526,291.6585,5.8344e-05,6.41e-06,0.0,0 STARLINK-3350,1 51105U 22005B   23045.05784067  .00000641  00000-0  58344-4 0  9991,2 51105  53.2138 275.3489 0001116  68.4526 291.6585 15.08836292 60965,6917.892,95.438,540.529,538.985,0.0
51105.0,STARLINK-3350,PAYLOAD,2023-02-14 07:44:50,15.08835689,0.0001119,53.2134,274.1596,68.6046,291.5065,3.4257e-05,2.57e-06,0.0,0 STARLINK-3350,1 51105U 22005B   23045.32280225  .00000257  00000-0  34257-4 0  9998,2 51105  53.2134 274.1596 0001119  68.6046 291.5065 15.08835689 59890,6917.894,95.438,540.533,538.984,0.0
51105.0,STARLINK-3350,PAYLOAD,2023-02-14 15:41:45,15.08837961,0.0001024,53.2139,272.6723,66.6973,293.4127,1.0636e-05,-1.18e-06,0.0,0 STARLINK-3350,1 51105U 22005B   23045.65400260 -.00000118  00000-0  10636-4 0  9999,2 51105  53.2139 272.6723 0001024  66.6973 293.4127 15.08837961 59943,6917.887,95.438,540.46,539.043,0.0
51105.0,STARLINK-3350,PAYLOAD,2023-02-15 07:35:37,15.08842122,9.44e-05,53.2123,269.7011,76.7439,283.3659,0.00010957,1.457e-05,0.0,0 STARLINK-3350,1 51105U 22005B   23046.31640127  .00001457  00000-0  10957-3 0  9992,2 51105  53.2123 269.7011 0000944  76.7439 283.3659 15.08842122 61151,6917.874,95.437,540.392,539.086,0.0
51105.0,STARLINK-3350,PAYLOAD,2023-02-15 20:18:41,15.08845881,0.0001029,53.2122,267.3198,82.0235,278.0874,0.00025615,3.792e-05,0.0,0 STARLINK-3350,1 51105U 22005B   23046.84631904  .00003792  00000-0  25615-3 0  9994,2 51105  53.2122 267.3198 0001029  82.0235 278.0874 15.08845881 60120,6917.862,95.437,540.439,539.016,0.0
51105.0,STARLINK-3350,PAYLOAD,2023-02-16 13:47:56,15.08842053,0.0001142,53.2109,264.0499,85.0605,275.0517,7.7497e-05,9.46e-06,0.0,0 STARLINK-3350,1 51105U 22005B   23047.57495893  .00000946  00000-0  77497-4 0  9994,2 51105  53.2109 264.0499 0001142  85.0605 275.0517 15.08842053 61347,6917.874,95.437,540.529,538.949,0.0
51105.0,STARLINK-3350,PAYLOAD,2023-02-16 21:44:51,15.08847237,7.89e-05,53.2124,262.5621,95.131,264.9772,0.00010219,1.339e-05,0.0,0 STARLINK-3350,1 51105U 22005B   23047.90615531  .00001339  00000-0  10219-3 0  9999,2 51105  53.2124 262.5621 0000789  95.1310 264.9772 15.08847237 60286,6917.858,95.437,540.269,539.177,0.0
51105.0,STARLINK-3350,PAYLOAD,2023-02-17 13:38:43,15.08832576,9.73e-05,53.2131,259.5884,87.821,272.2893,-4.4717e-05,-9.99e-06,0.0,0 STARLINK-3350,1 51105U 22005B   23048.56856445 -.00000999  00000-0 -44717-4 0  9997,2 51105  53.2131 259.5884 0000973  87.8210 272.2893 15.08832576 61493,6917.903,95.438,540.441,539.095,0.0
51105.0,STARLINK-3350,PAYLOAD,2023-02-17 20:00:16,15.08835044,0.0001074,53.2123,258.3998,86.4466,273.6649,-1.4437e-05,-5.18e-06,0.0,0 STARLINK-3350,1 51105U 22005B   23048.83352406 -.00000518  00000-0 -14437-4 0  9998,2 51105  53.2123 258.3998 0001074  86.4466 273.6649 15.08835044 60427,6917.896,95.438,540.504,539.018,0.0
51105.0,STARLINK-3350,PAYLOAD,2023-02-18 07:07:58,15.08843216,0.0001006,53.2133,256.3174,88.1505,271.9603,-7.7585e-05,-1.522e-05,0.0,0 STARLINK-3350,1 51105U 22005B   23049.29720393 -.00001522  00000-0 -77585-4 0  9992,2 51105  53.2133 256.3174 0001006  88.1505 271.9603 15.08843216 61602,6917.871,95.437,540.431,539.04,0.0
51105.0,STARLINK-3350,PAYLOAD,2023-02-18 13:29:31,15.08833426,9.7e-05,53.2133,255.1276,92.2609,267.8495,0.0001158,1.555e-05,0.0,0 STARLINK-3350,1 51105U 22005B   23049.56216668  .00001555  00000-0  11580-3 0  9993,2 51105  53.2133 255.1276 0000970  92.2609 267.8495 15.08833426 60538,6917.9,95.438,540.437,539.094,0.0
51105.0,STARLINK-3350,PAYLOAD,2023-02-19 13:20:18,15.08837866,0.0001063,53.2132,250.6665,87.6434,272.468,0.00012915,1.768e-05,0.0,0 STARLINK-3350,1 51105U 22005B   23050.55576550  .00001768  00000-0  12915-3 0  9992,2 51105  53.2132 250.6665 0001063  87.6434 272.4680 15.08837866 60683,6917.887,95.438,540.487,539.017,0.0
51105.0,STARLINK-3350,PAYLOAD,2023-02-19 19:41:50,15.08839107,0.0001055,53.2133,249.4769,86.7698,273.3415,0.00013643,1.884e-05,0.0,0 STARLINK-3350,1 51105U 22005B   23050.82072553  .00001884  00000-0  13643-3 0  9994,2 51105  53.2133 249.4769 0001055  86.7698 273.3415 15.08839107 61832,6917.883,95.438,540.478,539.018,0.0
51105.0,STARLINK-3350,PAYLOAD,2023-02-20 22:43:23,15.08846962,0.0001027,53.2136,244.4215,79.6203,280.4905,0.00011886,1.605e-05,0.0,0 STARLINK-3350,1 51105U 22005B   23051.94679989  .00001605  00000-0  11886-3 0  9992,2 51105  53.2136 244.4215 0001027  79.6203 280.4905 15.08846962 62008,6917.859,95.437,540.435,539.014,0.0
51105.0,STARLINK-3350,PAYLOAD,2023-02-21 19:23:24,15.08840832,0.0001068,53.2148,240.555,81.1773,278.934,8.1619e-05,1.011e-05,0.0,0 STARLINK-3350,1 51105U 22005B   23052.80792332  .00001011  00000-0  81619-4 0  9999,2 51105  53.2148 240.5550 0001068  81.1773 278.9340 15.08840832 62134,6917.878,95.438,540.482,539.004,0.0
51105.0,STARLINK-3350,PAYLOAD,2023-02-21 22:34:09,15.08868643,0.0001368,53.2142,239.9595,101.4264,258.6881,-0.00023831,-4.082e-05,0.0,0 STARLINK-3350,1 51105U 22005B   23052.94039078 -.00004082  00000-0 -23831-3 0  9999,2 51105  53.2142 239.9595 0001368 101.4264 258.6881 15.08868643 62150,6917.793,95.436,540.604,538.711,0.0
51105.0,STARLINK-3350,PAYLOAD,2023-02-22 11:17:16,15.08838737,0.0001136,53.215,237.5812,90.9223,269.1899,-5.9282e-06,-3.82e-06,0.0,0 STARLINK-3350,1 51105U 22005B   23053.47032642 -.00000382  00000-0 -59282-5 0  9998,2 51105  53.2150 237.5812 0001136  90.9223 269.1899 15.08838737 62231,6917.884,95.438,540.535,538.963,0.0
51105.0,STARLINK-3350,PAYLOAD,2023-02-22 12:52:39,15.08838638,0.0001092,53.2148,237.2841,95.0352,265.0765,-1.305e-05,-4.95e-06,0.0,0 STARLINK-3350,1 51105U 22005B   23053.53656598 -.00000495  00000-0 -13050-4 0  9994,2 51105  53.2148 237.2841 0001092  95.0352 265.0765 15.08838638 61132,6917.885,95.438,540.505,538.994,0.0
